$$SOE
2461302.500000000, A.D. 2026-Sep-19 00:00:00.0000, -1.877224842705645E+08, -2.527385069410082E+08, 1.442223027792631E+07,
2461309.500000000, A.D. 2026-Sep-26 00:00:00.0000, -1.763291065061599E+08, -2.584041016324385E+08, 1.328093578575149E+07,
2461316.500000000, A.D. 2026-Oct-03 00:00:00.0000, -1.646569697955028E+08, -2.636610874393035E+08, 1.211864734352769E+07,
2461323.500000000, A.D. 2026-Oct-10 00:00:00.0000, -1.527194130548668E+08, -2.684929582571892E+08, 1.093682622709487E+07,
2461330.500000000, A.D. 2026-Oct-17 00:00:00.0000, -1.405308595986345E+08, -2.728834443314273E+08, 9.737032528849423E+06,
2461337.500000000, A.D. 2026-Oct-24 00:00:00.0000, -1.281068444206151E+08, -2.768165883889030E+08, 8.520926746694088E+06,
2461344.500000000, A.D. 2026-Oct-31 00:00:00.0000, -1.154640365671970E+08, -2.802768279839681E+08, 7.290270821911722E+06,
2461351.500000000, A.D. 2026-Nov-07 00:00:00.0000, -1.026202553705009E+08, -2.832490838479999E+08, 6.046928519050732E+06,
2461358.500000000, A.D. 2026-Nov-14 00:00:00.0000, -8.959447940355000E+07, -2.857188530995967E+08, 4.792865117380336E+06,
2461365.500000000, A.D. 2026-Nov-21 00:00:00.0000, -7.640684900127555E+07, -2.876723062416200E+08, 3.530146550036326E+06,
2461372.500000000, A.D. 2026-Nov-28 00:00:00.0000, -6.307866236254419E+07, -2.890963904111064E+08, 2.260937751201302E+06,
2461379.500000000, A.D. 2026-Dec-05 00:00:00.0000, -4.963236063896935E+07, -2.899789388390812E+08, 9.874997432981431E+05,
2461386.500000000, A.D. 2026-Dec-12 00:00:00.0000, -3.609150090693489E+07, -2.903087825409936E+08, -2.878143733094931E+05,
2461393.500000000, A.D. 2026-Dec-19 00:00:00.0000, -2.248071803415484E+07, -2.900758631823528E+08, -1.562564422973752E+06,
2461400.500000000, A.D. 2026-Dec-26 00:00:00.0000, -8.825674801080428E+06, -2.892713467570606E+08, -2.834229265139893E+06,
2461407.500000000, A.D. 2027-Jan-02 00:00:00.0000, 4.847000651018118E+06, -2.878877368615832E+08, -4.100214096600220E+06,
2461414.500000000, A.D. 2027-Jan-09 00:00:00.0000, 1.850979064947295E+07, -2.859189859686260E+08, -5.357858980720177E+06,
2461421.500000000, A.D. 2027-Jan-16 00:00:00.0000, 3.213437742110479E+07, -2.833606029671343E+08, -6.604448611845657E+06,
2461428.500000000, A.D. 2027-Jan-23 00:00:00.0000, 4.569174622454906E+07, -2.802097551679600E+08, -7.837223304131269E+06,
2461435.500000000, A.D. 2027-Jan-30 00:00:00.0000, 5.915230215424860E+07, -2.764653629011554E+08, -9.053391180815399E+06,
2461442.500000000, A.D. 2027-Feb-06 00:00:00.0000, 7.248600052451713E+07, -2.721281843982599E+08, -1.025014150164202E+07,
2461449.500000000, A.D. 2027-Feb-13 00:00:00.0000, 8.566248954107703E+07, -2.672008877762588E+08, -1.142465888384873E+07,
2461456.500000000, A.D. 2027-Feb-20 00:00:00.0000, 9.865126173797570E+07, -2.616881090086486E+08, -1.257413813228868E+07,
2461463.500000000, A.D. 2027-Feb-27 00:00:00.0000, 1.114218140938469E+08, -2.555964973114683E+08, -1.369579990817250E+07,
2461470.500000000, A.D. 2027-Mar-06 00:00:00.0000, 1.239438180534833E+08, -2.489347444264889E+08, -1.478690716782165E+07,
2461477.500000000, A.D. 2027-Mar-13 00:00:00.0000, 1.361872957740494E+08, -2.417135944092451E+08, -1.584478184481835E+07,
2461484.500000000, A.D. 2027-Mar-20 00:00:00.0000, 1.481227991361159E+08, -2.339458337183651E+08, -1.686682150835538E+07,
2461491.500000000, A.D. 2027-Mar-27 00:00:00.0000, 1.597215891946726E+08, -2.256462614736662E+08, -1.785051581556343E+07,
2461498.500000000, A.D. 2027-Apr-03 00:00:00.0000, 1.709558136120976E+08, -2.168316396504077E+08, -1.879346252738841E+07,
2461505.500000000, A.D. 2027-Apr-10 00:00:00.0000, 1.817986794065581E+08, -2.075206233369167E+08, -1.969338283834904E+07,
2461512.500000000, A.D. 2027-Apr-17 00:00:00.0000, 1.922246183127755E+08, -1.977336716586714E+08, -2.054813577615599E+07,
2461519.500000000, A.D. 2027-Apr-24 00:00:00.0000, 2.022094421906788E+08, -1.874929404412780E+08, -2.135573144882105E+07,
2461526.500000000, A.D. 2027-May-01 00:00:00.0000, 2.117304863175491E+08, -1.768221579915121E+08, -2.211434294949369E+07,
2461533.500000000, A.D. 2027-May-08 00:00:00.0000, 2.207667386822156E+08, -1.657464850357993E+08, -2.282231670017594E+07,
2461540.500000000, A.D. 2027-May-15 00:00:00.0000, 2.292989519309023E+08, -1.542923600002996E+08, -2.347818087078150E+07,
2461547.500000000, A.D. 2027-May-22 00:00:00.0000, 2.373097349135849E+08, -1.424873346438079E+08, -2.408065183426449E+07,
2461554.500000000, A.D. 2027-May-29 00:00:00.0000, 2.447836260931471E+08, -1.303599041246598E+08, -2.462863901797062E+07,
2461561.500000000, A.D. 2027-Jun-05 00:00:00.0000, 2.517071490312966E+08, -1.179393310904957E+08, -2.512124794876850E+07,
2461568.500000000, A.D. 2027-Jun-12 00:00:00.0000, 2.580688477067773E+08, -1.052554661039762E+08, -2.555778128506524E+07,
2461575.500000000, A.D. 2027-Jun-19 00:00:00.0000, 2.638593015244826E+08, -9.233856802913840E+07, -2.593773793325714E+07,
2461582.500000000, A.D. 2027-Jun-26 00:00:00.0000, 2.690711208884239E+08, -7.921912720459481E+07, -2.626081038332038E+07,
2461589.500000000, A.D. 2027-Jul-03 00:00:00.0000, 2.736989244299271E+08, -6.592769377371656E+07, -2.652688039467542E+07,
2461596.500000000, A.D. 2027-Jul-10 00:00:00.0000, 2.777392992032681E+08, -5.249471330226775E+07, -2.673601318138048E+07,
2461603.500000000, A.D. 2027-Jul-17 00:00:00.0000, 2.811907454194986E+08, -3.895037158190227E+07, -2.688845027046743E+07,
2461610.500000000, A.D. 2027-Jul-24 00:00:00.0000, 2.840536076035370E+08, -2.532445023553404E+07, -2.698460123492884E+07,
2461617.500000000, A.D. 2027-Jul-31 00:00:00.0000, 2.863299944395983E+08, -1.164619411604722E+07, -2.702503450949159E+07,
2461624.500000000, A.D. 2027-Aug-07 00:00:00.0000, 2.880236890345416E+08, 2.055809764115864E+06, -2.701046736818423E+07,
2461631.500000000, A.D. 2027-Aug-14 00:00:00.0000, 2.891400492672843E+08, 1.575374094330202E+07, -2.694175506478984E+07,
2461638.500000000, A.D. 2027-Aug-21 00:00:00.0000, 2.896859007715847E+08, 2.942063820623997E+07, -2.681987965348571E+07,
2461645.500000000, A.D. 2027-Aug-28 00:00:00.0000, 2.896694278159083E+08, 4.303047745842905E+07, -2.664593887879814E+07,
2461652.500000000, A.D. 2027-Sep-04 00:00:00.0000, 2.891000626240477E+08, 5.655823752219798E+07, -2.642113498093195E+07,
2461659.500000000, A.D. 2027-Sep-11 00:00:00.0000, 2.879883733329877E+08, 6.997995363995473E+07, -2.614676348659978E+07,
2461666.500000000, A.D. 2027-Sep-18 00:00:00.0000, 2.863459521532980E+08, 8.327275865140945E+07, -2.582420217784447E+07,
2461673.500000000, A.D. 2027-Sep-25 00:00:00.0000, 2.841853052200707E+08, 9.641491251916887E+07, -2.545490037531576E+07,
2461680.500000000, A.D. 2027-Oct-02 00:00:00.0000, 2.815197452906160E+08, 1.093858210822022E+08, -2.504036863144448E+07,
2461687.500000000, A.D. 2027-Oct-09 00:00:00.0000, 2.783632882145175E+08, 1.221660449517044E+08, -2.458216890859409E+07,
2461694.500000000, A.D. 2027-Oct-16 00:00:00.0000, 2.747305539691035E+08, 1.347372994519702E+08, -2.408190530772594E+07,
2461701.500000000, A.D. 2027-Oct-23 00:00:00.0000, 2.706366730865927E+08, 1.470824465715797E+08, -2.354121541144605E+07,
2461708.500000000, A.D. 2027-Oct-30 00:00:00.0000, 2.660971992599756E+08, 1.591854804956629E+08, -2.296176225179081E+07,
2461715.500000000, A.D. 2027-Nov-06 00:00:00.0000, 2.611280272297445E+08, 1.710315087854509E+08, -2.234522671672459E+07,
2461722.500000000, A.D. 2027-Nov-13 00:00:00.0000, 2.557453141229409E+08, 1.826067280457564E+08, -2.169330038688879E+07,
2461729.500000000, A.D. 2027-Nov-20 00:00:00.0000, 2.499654072221737E+08, 1.938983927549676E+08, -2.100767924642083E+07,
2461736.500000000, A.D. 2027-Nov-27 00:00:00.0000, 2.438047797574544E+08, 2.048947810069487E+08, -2.029005816379671E+07,
2461743.500000000, A.D. 2027-Dec-04 00:00:00.0000, 2.372799725906967E+08, 2.155851588011027E+08, -1.954212586367305E+07,
2461750.500000000, A.D. 2027-Dec-11 00:00:00.0000, 2.304075410771520E+08, 2.259597425729651E+08, -1.876556039381766E+07,
2461757.500000000, A.D. 2027-Dec-18 00:00:00.0000, 2.232040071638376E+08, 2.360096602137839E+08, -1.796202511170940E+07,
2461764.500000000, A.D. 2027-Dec-25 00:00:00.0000, 2.156858166228370E+08, 2.457269110982694E+08, -1.713316517369983E+07,
2461771.500000000, A.D. 2028-Jan-01 00:00:00.0000, 2.078693011790902E+08, 2.551043255935389E+08, -1.628060449647403E+07,
$$EOE